NORAD_CAT_ID,OBJECT_NAME,OBJECT_TYPE,EPOCH,MEAN_MOTION,ECCENTRICITY,INCLINATION,RA_OF_ASC_NODE,ARG_OF_PERICENTER,MEAN_ANOMALY,BSTAR,MEAN_MOTION_DOT,MEAN_MOTION_DDOT,TLE_LINE0,TLE_LINE1,TLE_LINE2,SEMIMAJOR_AXIS,PERIOD,APOGEE,PERIGEE,DECAYED
50804.0,STARLINK-3323,PAYLOAD,2022-10-20 04:27:09,15.08826287,0.000245,53.2189,310.0161,40.8676,319.25,2.4073e-05,9.5e-07,0.0,0 STARLINK-3323,1 50804U 22001B   22293.18552521  .00000095  00000-0  24073-4 0  9993,2 50804  53.2189 310.0161 0002450  40.8676 319.2500 15.08826287 45120,6917.922,95.438,541.482,538.092,0.0
50804.0,STARLINK-3323,PAYLOAD,2022-10-20 10:48:41,15.08835892,0.0002371,53.2186,308.8266,37.1397,322.9759,4.858e-05,4.85e-06,0.0,0 STARLINK-3323,1 50804U 22001B   22293.45047881  .00000485  00000-0  48580-4 0  9993,2 50804  53.2186 308.8266 0002371  37.1397 322.9759 15.08835892 43913,6917.893,95.438,541.398,538.118,0.0
50804.0,STARLINK-3323,PAYLOAD,2022-10-21 10:39:29,15.08793916,0.0002623,53.2181,304.3654,49.6129,310.5092,0.0011599,0.00018197,0.0,0 STARLINK-3323,1 50804U 22001B   22294.44409343  .00018197  00000-0  11599-2 0  9995,2 50804  53.2181 304.3654 0002623  49.6129 310.5092 15.08793916 44061,6918.021,95.44,541.701,538.072,0.0
50804.0,STARLINK-3323,PAYLOAD,2022-10-21 12:14:49,15.08875315,0.0002119,53.2181,304.0678,39.657,320.4577,-0.0001209,-2.214e-05,0.0,0 STARLINK-3323,1 50804U 22001B   22294.51029940 -.00002214  00000-0 -12090-3 0  9997,2 50804  53.2181 304.0678 0002119  39.6570 320.4577 15.08875315 44076,6917.772,95.435,541.1030000000002,538.172,0.0
50804.0,STARLINK-3323,PAYLOAD,2022-10-22 02:33:19,15.0885862,0.0002288,53.2172,301.3918,44.4753,315.6422,0.00030699,4.603e-05,0.0,0 STARLINK-3323,1 50804U 22001B   22295.10647062  .00004603  00000-0  30699-3 0  9991,2 50804  53.2172 301.3918 0002288  44.4753 315.6422 15.08858620 45411,6917.823,95.436,541.271,538.106,0.0
50804.0,STARLINK-3323,PAYLOAD,2022-10-22 10:30:14,15.08849223,0.0002256999999999,53.217,299.9052,42.8852,317.2316,4.0512e-05,3.57e-06,0.0,0 STARLINK-3323,1 50804U 22001B   22295.43767199  .00000357  00000-0  40512-4 0  9999,2 50804  53.2170 299.9052 0002257  42.8852 317.2316 15.08849223 45462,6917.852,95.437,541.279,538.156,0.0
50804.0,STARLINK-3323,PAYLOAD,2022-10-22 16:51:47,15.08853749,0.0002258,53.217,298.7157,42.9354,317.1814,9.7109e-05,1.258e-05,0.0,0 STARLINK-3323,1 50804U 22001B   22295.70262843  .00001258  00000-0  97109-4 0  9990,2 50804  53.2170 298.7157 0002258  42.9354 317.1814 15.08853749 44250,6917.8380000000025,95.437,541.265,538.141,0.0
50804.0,STARLINK-3323,PAYLOAD,2022-10-23 03:59:28,15.08862145,0.0002214,53.2167,296.6339,41.5975,318.5185,0.00021421,3.125e-05,0.0,0 STARLINK-3323,1 50804U 22001B   22296.16629987  .00003125  00000-0  21421-3 0  9995,2 50804  53.2167 296.6339 0002214  41.5975 318.5185 15.08862145 45573,6917.813,95.436,541.2090000000002,538.146,0.0
50804.0,STARLINK-3323,PAYLOAD,2022-10-23 08:45:37,15.08851583,0.0002098,53.2167,295.7413,40.3128,319.8019,-9.0033e-06,-4.32e-06,0.0,0 STARLINK-3323,1 50804U 22001B   22296.36502105 -.00000432  00000-0 -90033-5 0  9996,2 50804  53.2167 295.7413 0002098  40.3128 319.8019 15.08851583 45601,6917.845,95.437,541.161,538.259,0.0
50804.0,STARLINK-3323,PAYLOAD,2022-10-23 11:56:24,15.08851008,0.0002137,53.2169,295.1468,41.4793,318.6361,-3.8711e-05,-9.05e-06,0.0,0 STARLINK-3323,1 50804U 22001B   22296.49750061 -.00000905  00000-0 -38711-4 0  9995,2 50804  53.2169 295.1468 0002137  41.4793 318.6361 15.08851008 44373,6917.847,95.437,541.19,538.2330000000002,0.0
50804.0,STARLINK-3323,PAYLOAD,2022-10-23 16:42:33,15.08853514,0.000213,53.2169,294.2547,41.3797,318.7356,2.7928e-05,1.56e-06,0.0,0 STARLINK-3323,1 50804U 22001B   22296.69621803  .00000156  00000-0  27928-4 0  9992,2 50804  53.2169 294.2547 0002130  41.3797 318.7356 15.08853514 44400,6917.839,95.437,541.178,538.231,0.0
50804.0,STARLINK-3323,PAYLOAD,2022-10-24 10:11:48,15.08833097,0.0002211999999999,53.2168,290.9842,41.5242,318.5917,-0.00025429,-4.332e-05,0.0,0 STARLINK-3323,1 50804U 22001B   22297.42486205 -.00004332  00000-0 -25429-3 0  9994,2 50804  53.2168 290.9842 0002212  41.5242 318.5917 15.08833097 45763,6917.901,95.438,541.297,538.236,0.0
50804.0,STARLINK-3323,PAYLOAD,2022-10-24 11:47:11,15.0883382,0.0002244,53.217,290.6867,42.3512,317.7653,-0.00029534,-4.985e-05,0.0,0 STARLINK-3323,1 50804U 22001B   22297.49110162 -.00004985  00000-0 -29534-3 0  9992,2 50804  53.2170 290.6867 0002244  42.3512 317.7653 15.08833820 44529,6917.899,95.438,541.317,538.212,0.0
50804.0,STARLINK-3323,PAYLOAD,2022-10-25 10:02:35,15.08837455,0.0002126999999999,53.2169,286.5235,39.8715,320.2433,1.3301e-05,-7.7e-07,0.0,0 STARLINK-3323,1 50804U 22001B   22298.41846387 -.00000077  00000-0  13301-4 0  9993,2 50804  53.2169 286.5235 0002127  39.8715 320.2433 15.08837455 45913,6917.888000000001,95.438,541.225,538.2819999999998,0.0
50804.0,STARLINK-3323,PAYLOAD,2022-10-25 11:37:58,15.08838539,0.0002126999999999,53.2169,286.2262,39.9846,320.1303,5.1488e-05,5.31e-06,0.0,0 STARLINK-3323,1 50804U 22001B   22298.48470395  .00000531  00000-0  51488-4 0  9994,2 50804  53.2169 286.2262 0002127  39.9846 320.1303 15.08838539 44677,6917.885,95.438,541.221,538.278,0.0
50804.0,STARLINK-3323,PAYLOAD,2022-10-25 16:24:07,15.08839574,0.0002097,53.2166,285.3342,40.4569,319.6579,0.0002054,2.982e-05,0.0,0 STARLINK-3323,1 50804U 22001B   22298.68342465  .00002982  00000-0  20540-3 0  9998,2 50804  53.2166 285.3342 0002097  40.4569 319.6579 15.08839574 44700,6917.882,95.438,541.197,538.2959999999998,0.0
50804.0,STARLINK-3323,PAYLOAD,2022-10-26 11:28:45,15.08839849,0.000204,53.2167,281.7653,39.9343,320.1799,0.00021417,3.122e-05,0.0,0 STARLINK-3323,1 50804U 22001B   22299.47830677  .00003122  00000-0  21417-3 0  9994,2 50804  53.2167 281.7653 0002040  39.9343 320.1799 15.08839849 46075,6917.880999999999,95.438,541.1569999999998,538.335,0.0
50804.0,STARLINK-3323,PAYLOAD,2022-10-27 08:08:46,15.08852178,0.00021,53.2167,277.8996,41.3736,318.7415,0.0005814,8.98e-05,0.0,0 STARLINK-3323,1 50804U 22001B   22300.33942273  .00008980  00000-0  58140-3 0  9998,2 50804  53.2167 277.8996 0002100  41.3736 318.7415 15.08852178 44954,6917.843000000003,95.437,541.161,538.255,0.0
50804.0,STARLINK-3323,PAYLOAD,2022-10-28 04:48:46,15.08850082,0.0002210999999999,53.2173,274.0338,42.4301,317.6862,0.00023858,3.512e-05,0.0,0 STARLINK-3323,1 50804U 22001B   22301.20054009  .00003512  00000-0  23858-3 0  9990,2 50804  53.2173 274.0338 0002211  42.4301 317.6862 15.08850082 46333,6917.85,95.437,541.244,538.185,0.0
50804.0,STARLINK-3323,PAYLOAD,2022-10-28 09:34:56,15.08845889,0.0002224,53.2171,273.1418,42.7394,317.377,0.00014608,2.038e-05,0.0,0 STARLINK-3323,1 50804U 22001B   22301.39926118  .00002038  00000-0  14608-3 0  9994,2 50804  53.2171 273.1418 0002224  42.7394 317.3770 15.08845889 45118,6917.861999999999,95.437,541.266,538.189,0.0
50804.0,STARLINK-3323,PAYLOAD,2022-10-29 04:39:34,15.08839579,0.0002403,53.2186,269.5733,43.8353,316.283,0.00030539,4.575e-05,0.0,0 STARLINK-3323,1 50804U 22001B   22302.19414352  .00004575  00000-0  30539-3 0  9994,2 50804  53.2186 269.5733 0002403  43.8353 316.2830 15.08839579 46484,6917.882,95.438,541.409,538.0840000000002,0.0
50804.0,STARLINK-3323,PAYLOAD,2022-10-30 09:16:30,15.08835365,0.0002521,53.218,264.2221,39.2904,320.827,-8.3384e-05,-1.615e-05,0.0,0 STARLINK-3323,1 50804U 22001B   22303.38646092 -.00001615  00000-0 -83384-4 0  9995,2 50804  53.2180 264.2221 0002521  39.2904 320.8270 15.08835365 45414,6917.895,95.438,541.504,538.016,0.0
50804.0,STARLINK-3323,PAYLOAD,2022-10-30 21:59:35,15.08837474,0.0002093,53.2172,261.8424,45.7553,314.3611,-1.074e-05,-4.59e-06,0.0,0 STARLINK-3323,1 50804U 22001B   22303.91638039 -.00000459  00000-0 -10740-4 0  9997,2 50804  53.2172 261.8424 0002093  45.7553 314.3611 15.08837474 45497,6917.888000000001,95.438,541.201,538.305,0.0
50804.0,STARLINK-3323,PAYLOAD,2022-10-31 09:07:17,15.08843297,0.0002165999999999,53.2176,259.7609,37.8828,322.2316,0.00029034,4.336e-05,0.0,0 STARLINK-3323,1 50804U 22001B   22304.38006034  .00004336  00000-0  29034-3 0  9994,2 50804  53.2176 259.7609 0002166  37.8828 322.2316 15.08843297 45568,6917.87,95.437,541.234,538.237,0.0
50804.0,STARLINK-3323,PAYLOAD,2022-10-31 13:53:26,15.08839843,0.0002141,53.2174,258.869,36.2499,323.8638,0.00016737,2.376e-05,0.0,0 STARLINK-3323,1 50804U 22001B   22304.57878079  .00002376  00000-0  16737-3 0  9999,2 50804  53.2174 258.8690 0002141  36.2499 323.8638 15.08839843 45595,6917.880999999999,95.438,541.227,538.265,0.0
50804.0,STARLINK-3323,PAYLOAD,2022-11-01 04:11:55,15.08832902,0.0002311999999999,53.2177,256.1945,40.1446,319.9717,-0.00012001,-2.197e-05,0.0,0 STARLINK-3323,1 50804U 22001B   22305.17494557 -.00002197  00000-0 -12001-3 0  9994,2 50804  53.2177 256.1945 0002312  40.1446 319.9717 15.08832902 46930,6917.901999999999,95.438,541.367,538.168,0.0
50804.0,STARLINK-3323,PAYLOAD,2022-11-01 05:47:18,15.08833798,0.0002234,53.2176,255.8965,42.4989,317.6175,-0.00011534,-2.123e-05,0.0,0 STARLINK-3323,1 50804U 22001B   22305.24118509 -.00002123  00000-0 -11534-3 0  9991,2 50804  53.2176 255.8965 0002234  42.4989 317.6175 15.08833798 45696,6917.899,95.438,541.31,538.219,0.0
50804.0,STARLINK-3323,PAYLOAD,2022-11-01 13:44:14,15.0883672,0.00022,53.2178,254.4089,41.7162,318.3998,3.6913e-05,2.99e-06,0.0,0 STARLINK-3323,1 50804U 22001B   22305.57238493  .00000299  00000-0  36913-4 0  9991,2 50804  53.2178 254.4089 0002200  41.7162 318.3998 15.08836720 45743,6917.89,95.438,541.2769999999998,538.2330000000002,0.0
50804.0,STARLINK-3323,PAYLOAD,2022-11-02 05:38:05,15.08840377,0.0002154,53.2168,251.4352,44.4593,315.6572,0.00016285,2.305e-05,0.0,0 STARLINK-3323,1 50804U 22001B   22306.23478683  .00002305  00000-0  16285-3 0  9991,2 50804  53.2168 251.4352 0002154  44.4593 315.6572 15.08840377 47099,6917.879,95.438,541.234,538.254,0.0
